     2.11           N: GPS NAV DATA                         RINEX VERSION / TYPE
teqc  2018Dec12     gpsops              20220327 01:04:04UTCPGM / RUN BY / DATE
Linux 2.6.32-573.12.1.x86_64|x86_64|gcc -static|Linux 64|=+ COMMENT
CHPI                                    MARKER NAME         COMMENT
41609M003                               MARKER NUMBER       COMMENT
4164613.9484 -4162456.9866 -2445028.7316                    COMMENT
                                                            COMMENT
This data is provided as a public service by NASA/JPL.      COMMENT
No warranty is expressed or implied regarding suitability   COMMENT
for use.  For further information, contact:                 COMMENT
Dave Stowers, NASA/JPL m/s 238-600                          COMMENT
4800 Oak Grove Drive, Pasadena CA 91109 USA                 COMMENT
                                                            END OF HEADER
 6 22  3 26 20  0  0.0 2.447958104312D-04 1.307398633799D-11 0.000000000000D+00
    8.600000000000D+01 5.062500000000D+00 4.073741116241D-09 5.879853151714D-01
    1.508742570877D-07 2.671554568224D-03 2.851709723473D-06 5.153692483902D+03
    5.904000000000D+05-4.470348358154D-08-2.548234442616D+00-9.499490261078D-08
    9.867568864308D-01 3.391562500000D+02-9.030825570820D-01-8.136767500455D-09
   -7.143154683922D-12 1.000000000000D+00 2.202000000000D+03 0.000000000000D+00
    2.000000000000D+00 0.000000000000D+00 3.725290298462D-09 8.600000000000D+01
    5.832180000000D+05 4.000000000000D+00
31 22  3 26 20  0  0.0-1.706820912659D-04-1.705302565824D-12 0.000000000000D+00
    5.000000000000D+01 2.628125000000D+01 4.912704633867D-09-8.172185699880D-01
    1.540407538414D-06 1.044082164299D-02 6.394460797310D-06 5.153701789856D+03
    5.904000000000D+05 1.825392246246D-07 6.128174966857D-01-5.587935447693D-09
    9.553619798041D-01 2.467812500000D+02 3.838375534491D-01-8.218199463852D-09
    2.707255625206D-10 1.000000000000D+00 2.202000000000D+03 0.000000000000D+00
    2.000000000000D+00 0.000000000000D+00-1.350417733192D-08 5.000000000000D+01
    5.832180000000D+05 4.000000000000D+00
30 22  3 26 20  0  0.0-5.207494832575D-04-1.932676241267D-12 0.000000000000D+00
    8.300000000000D+01 2.187500000000D+01 5.373080953246D-09-3.060893940576D-01
    1.246109604836D-06 5.606095772237D-03 6.467103958130D-06 5.153783638000D+03
    5.904000000000D+05 3.352761268616D-08 6.071066097529D-01 8.009374141693D-08
    9.363066657537D-01 2.408750000000D+02-2.734679820334D+00-8.451780622016D-09
    1.617924535908D-10 1.000000000000D+00 2.202000000000D+03 0.000000000000D+00
    2.000000000000D+00 0.000000000000D+00 3.725290298462D-09 8.300000000000D+01
    5.848320000000D+05 4.000000000000D+00
 7 22  3 26 19 59 44.0 3.178888000548D-04 1.705302565824D-12 0.000000000000D+00
    5.000000000000D+00 2.440625000000D+01 5.121999066106D-09-3.626172976545D-01
    1.497566699982D-06 1.575100806076D-02 6.698071956635D-06 5.153671030045D+03
    5.903840000000D+05-2.235174179077D-08 5.945760814975D-01 2.291053533554D-07
    9.511564458153D-01 2.481562500000D+02-2.283282609234D+00-8.486424922233D-09
    1.757216052245D-10 1.000000000000D+00 2.202000000000D+03 0.000000000000D+00
    2.000000000000D+00 0.000000000000D+00-1.117587089539D-08 5.000000000000D+00
    5.862060000000D+05 4.000000000000D+00
 8 22  3 26 20  0  0.0-6.141560152173D-05-1.591615728103D-12 0.000000000000D+00
    5.300000000000D+01 7.184375000000D+01 4.344466678761D-09 2.532574574594D+00
    3.783032298088D-06 7.418699911796D-03 8.285045623779D-06 5.153745555878D+03
    5.904000000000D+05-1.955777406693D-07 2.663075498481D+00 4.284083843231D-08
    9.643696301631D-01 2.231875000000D+02 1.380717385335D-01-7.904257815494D-09
   -7.178870457341D-11 1.000000000000D+00 2.202000000000D+03 0.000000000000D+00
    2.000000000000D+00 0.000000000000D+00 5.122274160385D-09 5.300000000000D+01
    5.886480000000D+05 4.000000000000D+00
11 22  3 26 20  0  0.0-5.500810220838D-05 7.275957614183D-12 0.000000000000D+00
    4.100000000000D+01-1.218750000000D+00 4.631621497055D-09 2.571825193311D+00
   -1.490116119385D-08 2.946265740320D-04 2.324581146240D-06 5.153788940430D+03
    5.904000000000D+05-4.284083843231D-08-2.497133644714D+00 2.235174179077D-08
    9.624990992194D-01 3.370937500000D+02 2.705612729436D+00-8.417493479533D-09
   -6.071681481333D-12 1.000000000000D+00 2.202000000000D+03 0.000000000000D+00
    1.024000000000D+03 6.300000000000D+01-8.847564458847D-09 5.530000000000D+02
    5.901180000000D+05 4.000000000000D+00
27 22  3 26 19 59 44.0 1.663011498749D-04 1.125499693444D-11 0.000000000000D+00
    0.000000000000D+00 7.696875000000D+01 4.133386457851D-09 2.524458966329D+00
    3.894791007042D-06 1.044698129408D-02 8.735805749893D-06 5.153656957626D+03
    5.903840000000D+05-1.210719347000D-07 2.682822295872D+00-1.695007085800D-07
    9.730994372689D-01 2.166562500000D+02 6.569362942278D-01-7.716392847306D-09
   -5.535944880039D-11 1.000000000000D+00 2.202000000000D+03 0.000000000000D+00
    2.000000000000D+00 0.000000000000D+00 1.396983861923D-09 0.000000000000D+00
    5.903880000000D+05 4.000000000000D+00
 7 22  3 26 21 59 44.0 3.179009072483D-04 1.705302565824D-12 0.000000000000D+00
    6.000000000000D+00 2.965625000000D+01 5.028423739747D-09 6.875491950694D-01
    1.646578311920D-06 1.575200411025D-02 6.940215826035D-06 5.153673046112D+03
    5.975840000000D+05-1.918524503708D-07 5.945157551447D-01 1.452863216400D-07
    9.511575444667D-01 2.430625000000D+02-2.283263355769D+00-8.427851053825D-09
    5.393081786361D-11 1.000000000000D+00 2.202000000000D+03 0.000000000000D+00
    2.000000000000D+00 0.000000000000D+00-1.117587089539D-08 6.000000000000D+00
    5.904180000000D+05 4.000000000000D+00
 3 22  3 26 22  0  0.0-1.808260567486D-04-1.625721779419D-11 0.000000000000D+00
    2.200000000000D+01-9.740625000000D+01 4.253034298807D-09 2.301129176981D-01
   -5.081295967102D-06 3.962614922784D-03 5.757436156273D-06 5.153659809113D+03
    5.976000000000D+05-3.725290298462D-08-1.505259504489D+00 6.705522537231D-08
    9.727257524006D-01 2.734375000000D+02 9.453519438287D-01-8.084622471263D-09
   -1.767930784271D-10 1.000000000000D+00 2.202000000000D+03 0.000000000000D+00
    2.000000000000D+00 0.000000000000D+00 1.862645149231D-09 2.200000000000D+01
    5.904180000000D+05 4.000000000000D+00
 4 22  3 26 22  0  0.0-1.807613298297D-04 2.842170943040D-12 0.000000000000D+00
    1.260000000000D+02-3.534375000000D+01 4.285535652619D-09 3.098894903949D+00
   -1.814216375351D-06 1.762847998179D-03 1.035630702972D-05 5.153642278671D+03
    5.976000000000D+05 1.117587089539D-08-4.236627098353D-01-5.029141902924D-08
    9.614610725300D-01 1.806562500000D+02-3.001055684507D+00-7.791753129222D-09
    2.878691337620D-10 1.000000000000D+00 2.202000000000D+03 0.000000000000D+00
    2.000000000000D+00 0.000000000000D+00-4.190951585770D-09 1.260000000000D+02
    5.904180000000D+05 4.000000000000D+00
 9 22  3 26 22  0  0.0-3.475281409919D-04 2.273736754432D-12 0.000000000000D+00
    3.500000000000D+01-4.037500000000D+01 4.451971156754D-09-2.279494274612D+00
   -2.134591341019D-06 2.139433054253D-03 1.056119799614D-05 5.153601343155D+03
    5.976000000000D+05 5.215406417847D-08-4.769265901125D-01 7.450580596924D-09
    9.544427523031D-01 1.733125000000D+02 1.883405496153D+00-7.883899824644D-09
    2.042942239602D-10 1.000000000000D+00 2.202000000000D+03 0.000000000000D+00
    2.000000000000D+00 0.000000000000D+00 1.396983861923D-09 3.500000000000D+01
    5.904180000000D+05 4.000000000000D+00
30 22  3 26 22  0  0.0-5.207634530962D-04-1.932676241267D-12 0.000000000000D+00
    8.400000000000D+01 2.893750000000D+01 5.314507084838D-09 7.439823322961D-01
    1.577660441399D-06 5.607097526081D-03 6.435438990593D-06 5.153785619736D+03
    5.976000000000D+05-1.676380634308D-08 6.070459805760D-01 1.043081283569D-07
    9.363078565691D-01 2.425312500000D+02-2.734632566617D+00-8.423922318749D-09
    1.332198348551D-10 1.000000000000D+00 2.202000000000D+03 0.000000000000D+00
    2.000000000000D+00 0.000000000000D+00 3.725290298462D-09 8.400000000000D+01
    5.904180000000D+05 4.000000000000D+00
 6 22  3 26 22  0  0.0 2.448903396726D-04 1.307398633799D-11 0.000000000000D+00
    1.030000000000D+02 1.078125000000D+01 4.125171829965D-09 1.638092887407D+00
    6.053596735001D-07 2.671151421964D-03 2.654269337654D-06 5.153692426682D+03
    5.976000000000D+05 3.725290298462D-08-2.548292614090D+00-5.401670932770D-08
    9.867571643852D-01 3.361250000000D+02-9.030232225876D-01-8.054978379324D-09
   -1.785788670980D-11 1.000000000000D+00 2.202000000000D+03 0.000000000000D+00
    2.000000000000D+00 0.000000000000D+00 3.725290298462D-09 1.030000000000D+02
    5.904180000000D+05 4.000000000000D+00
16 22  3 26 22  0  0.0-4.851054400206D-04-4.206412995700D-12 0.000000000000D+00
    6.300000000000D+01 1.937500000000D+01 4.373039297497D-09-1.800114186553D+00
    7.897615432739D-07 1.279737893492D-02 8.106231689453D-06 5.153623052597D+03
    5.976000000000D+05 1.061707735062D-07 1.726261527847D+00-1.285225152969D-07
    9.695009820988D-01 2.209375000000D+02 7.194863000981D-01-7.794253233361D-09
   -2.542963067476D-10 1.000000000000D+00 2.202000000000D+03 0.000000000000D+00
    2.000000000000D+00 0.000000000000D+00-1.024454832077D-08 6.300000000000D+01
    5.904180000000D+05 4.000000000000D+00
 8 22  3 26 22  0  0.0-6.142677739263D-05-1.591615728103D-12 0.000000000000D+00
    5.400000000000D+01 7.371875000000D+01 4.372324982028D-09-2.700420139749D+00
    3.790482878685D-06 7.420654874295D-03 9.084120392799D-06 5.153741861343D+03
    5.976000000000D+05-1.471489667892D-07 2.663018683132D+00-1.043081283569D-07
    9.643693492829D-01 2.085625000000D+02 1.380184605200D-01-7.879613931834D-09
   -3.750156209059D-11 1.000000000000D+00 2.202000000000D+03 0.000000000000D+00
    2.800000000000D+00 0.000000000000D+00 5.122274160385D-09 5.400000000000D+01
    5.904180000000D+05 4.000000000000D+00
